SHIJIAN-16 (SJ-16)      
1 39358U 13057A   25327.55818591  .00001918  00000+0  19196-3 0  9992
2 39358  74.9743  25.9462 0016896   5.5151 354.6220 14.91904212655673
SL-4 R/B                
1 39679U 14021B   25326.77595956  .00012476  00000+0  30383-3 0  9992
2 39679  51.6047 137.5633 0103349  74.4491 286.7873 15.35951686639824
ALOS-2                  
1 39766U 14029A   25327.53531231 -.00000606  00000+0 -74217-4 0  9997
2 39766  97.9240  62.6544 0001274  98.6131 261.5225 14.79466996621174
YAOGAN-29               
1 41038U 15069A   25327.52090132  .00000525  00000+0  71531-4 0  9990
2 41038  98.0237 350.6292 0001486  28.4565 331.6729 14.82851343540147
ASTRO-H (HITOMI)        
1 41337U 16012A   25327.24636378  .00003472  00000+0  20736-3 0  9992
2 41337  31.0012 323.0229 0009689 340.5964  19.4304 15.09176364536132
HXMT (HUIYAN)           
1 42758U 17034A   25327.28987473  .00006995  00000+0  36444-3 0  9990
2 42758  43.0142 247.5413 0034045 281.7645  77.9385 15.15986043466385
CZ-2C R/B               
1 43521U 18054D   25327.36278762  .00095946  00000+0  76010-3 0  9992
2 43521  35.1358 311.8525 0021634 307.8808  51.9967 15.69711272412002
SAOCOM 1A               
1 43641U 18076A   25327.49889662  .00000535  00000+0  73783-4 0  9995
2 43641  97.8859 152.2006 0001565  90.3473 269.7919 14.82145959385631
H-2A R/B                
1 43682U 18084L   25327.42062495  .00018337  00000+0  51130-3 0  9999
2 43682  98.8785 157.5110 0028731  32.3834 327.9161 15.36430557389439
SAOCOM 1B               
1 46265U 20059A   25327.53016753  .00000515  00000+0  71302-4 0  9995
2 46265  97.8847 151.3330 0001346  90.0591 270.0776 14.82154763283027
CSS (TIANHE)            
1 48274U 21035A   25327.49179859  .00020480  00000+0  25428-3 0  9994
2 48274  41.4658 133.4631 0007945 223.8516 136.1692 15.59482397261020
COSMOS 2550             
1 48865U 21056A   25326.90291662  .00000010  00000+0  61512-5 0  9998
2 48865  67.1436   3.9363 0008276 268.0359  91.9848 15.33759073247083
