CCSDS_OMM_VERS = 2.0
CREATION_DATE  = 
ORIGINATOR     = 

OBJECT_NAME    = SHIJIAN-16 (SJ-16)
OBJECT_ID      = 2013-057A
CENTER_NAME    = EARTH
REF_FRAME      = TEME
TIME_SYSTEM    = UTC
MEAN_ELEMENT_THEORY = SGP/SGP4

EPOCH          = 2025-11-23T13:23:47.262624
MEAN_MOTION    = 14.91904212
ECCENTRICITY   = .0016896
INCLINATION    = 74.9743
RA_OF_ASC_NODE = 25.9462
ARG_OF_PERICENTER = 5.5151
MEAN_ANOMALY   = 354.6220

EPHEMERIS_TYPE = 0
CLASSIFICATION_TYPE = U
NORAD_CAT_ID   = 39358
ELEMENT_SET_NO = 999
REV_AT_EPOCH   = 65567
BSTAR          = .19196E-3
MEAN_MOTION_DOT = .1918E-4
MEAN_MOTION_DDOT = 0

CCSDS_OMM_VERS = 2.0
CREATION_DATE  = 
ORIGINATOR     = 

OBJECT_NAME    = SL-4 R/B
OBJECT_ID      = 2014-021B
CENTER_NAME    = EARTH
REF_FRAME      = TEME
TIME_SYSTEM    = UTC
MEAN_ELEMENT_THEORY = SGP/SGP4

EPOCH          = 2025-11-22T18:37:22.905984
MEAN_MOTION    = 15.35951686
ECCENTRICITY   = .0103349
INCLINATION    = 51.6047
RA_OF_ASC_NODE = 137.5633
ARG_OF_PERICENTER = 74.4491
MEAN_ANOMALY   = 286.7873

EPHEMERIS_TYPE = 0
CLASSIFICATION_TYPE = U
NORAD_CAT_ID   = 39679
ELEMENT_SET_NO = 999
REV_AT_EPOCH   = 63982
BSTAR          = .30383E-3
MEAN_MOTION_DOT = .12476E-3
MEAN_MOTION_DDOT = 0

CCSDS_OMM_VERS = 2.0
CREATION_DATE  = 
ORIGINATOR     = 

OBJECT_NAME    = ALOS-2
OBJECT_ID      = 2014-029A
CENTER_NAME    = EARTH
REF_FRAME      = TEME
TIME_SYSTEM    = UTC
MEAN_ELEMENT_THEORY = SGP/SGP4

EPOCH          = 2025-11-23T12:50:50.983584
MEAN_MOTION    = 14.79466996
ECCENTRICITY   = .0001274
INCLINATION    = 97.9240
RA_OF_ASC_NODE = 62.6544
ARG_OF_PERICENTER = 98.6131
MEAN_ANOMALY   = 261.5225

EPHEMERIS_TYPE = 0
CLASSIFICATION_TYPE = U
NORAD_CAT_ID   = 39766
ELEMENT_SET_NO = 999
REV_AT_EPOCH   = 62117
BSTAR          = -.74217E-4
MEAN_MOTION_DOT = -.606E-5
MEAN_MOTION_DDOT = 0

CCSDS_OMM_VERS = 2.0
CREATION_DATE  = 
ORIGINATOR     = 

OBJECT_NAME    = YAOGAN-29
OBJECT_ID      = 2015-069A
CENTER_NAME    = EARTH
REF_FRAME      = TEME
TIME_SYSTEM    = UTC
MEAN_ELEMENT_THEORY = SGP/SGP4

EPOCH          = 2025-11-23T12:30:05.874048
MEAN_MOTION    = 14.82851343
ECCENTRICITY   = .0001486
INCLINATION    = 98.0237
RA_OF_ASC_NODE = 350.6292
ARG_OF_PERICENTER = 28.4565
MEAN_ANOMALY   = 331.6729

EPHEMERIS_TYPE = 0
CLASSIFICATION_TYPE = U
NORAD_CAT_ID   = 41038
ELEMENT_SET_NO = 999
REV_AT_EPOCH   = 54014
BSTAR          = .71531E-4
MEAN_MOTION_DOT = .525E-5
MEAN_MOTION_DDOT = 0

CCSDS_OMM_VERS = 2.0
CREATION_DATE  = 
ORIGINATOR     = 

OBJECT_NAME    = ASTRO-H (HITOMI)
OBJECT_ID      = 2016-012A
CENTER_NAME    = EARTH
REF_FRAME      = TEME
TIME_SYSTEM    = UTC
MEAN_ELEMENT_THEORY = SGP/SGP4

EPOCH          = 2025-11-23T05:54:45.830592
MEAN_MOTION    = 15.09176364
ECCENTRICITY   = .0009689
INCLINATION    = 31.0012
RA_OF_ASC_NODE = 323.0229
ARG_OF_PERICENTER = 340.5964
MEAN_ANOMALY   = 19.4304

EPHEMERIS_TYPE = 0
CLASSIFICATION_TYPE = U
NORAD_CAT_ID   = 41337
ELEMENT_SET_NO = 999
REV_AT_EPOCH   = 53613
BSTAR          = .20736E-3
MEAN_MOTION_DOT = .3472E-4
MEAN_MOTION_DDOT = 0

CCSDS_OMM_VERS = 2.0
CREATION_DATE  = 
ORIGINATOR     = 

OBJECT_NAME    = HXMT (HUIYAN)
OBJECT_ID      = 2017-034A
CENTER_NAME    = EARTH
REF_FRAME      = TEME
TIME_SYSTEM    = UTC
MEAN_ELEMENT_THEORY = SGP/SGP4

EPOCH          = 2025-11-23T06:57:25.176672
MEAN_MOTION    = 15.15986043
ECCENTRICITY   = .0034045
INCLINATION    = 43.0142
RA_OF_ASC_NODE = 247.5413
ARG_OF_PERICENTER = 281.7645
MEAN_ANOMALY   = 77.9385

EPHEMERIS_TYPE = 0
CLASSIFICATION_TYPE = U
NORAD_CAT_ID   = 42758
ELEMENT_SET_NO = 999
REV_AT_EPOCH   = 46638
BSTAR          = .36444E-3
MEAN_MOTION_DOT = .6995E-4
MEAN_MOTION_DDOT = 0

CCSDS_OMM_VERS = 2.0
CREATION_DATE  = 
ORIGINATOR     = 

OBJECT_NAME    = CZ-2C R/B
OBJECT_ID      = 2018-054D
CENTER_NAME    = EARTH
REF_FRAME      = TEME
TIME_SYSTEM    = UTC
MEAN_ELEMENT_THEORY = SGP/SGP4

EPOCH          = 2025-11-23T08:42:24.850368
MEAN_MOTION    = 15.69711272
ECCENTRICITY   = .0021634
INCLINATION    = 35.1358
RA_OF_ASC_NODE = 311.8525
ARG_OF_PERICENTER = 307.8808
MEAN_ANOMALY   = 51.9967

EPHEMERIS_TYPE = 0
CLASSIFICATION_TYPE = U
NORAD_CAT_ID   = 43521
ELEMENT_SET_NO = 999
REV_AT_EPOCH   = 41200
BSTAR          = .7601E-3
MEAN_MOTION_DOT = .95946E-3
MEAN_MOTION_DDOT = 0

CCSDS_OMM_VERS = 2.0
CREATION_DATE  = 
ORIGINATOR     = 

OBJECT_NAME    = SAOCOM 1A
OBJECT_ID      = 2018-076A
CENTER_NAME    = EARTH
REF_FRAME      = TEME
TIME_SYSTEM    = UTC
MEAN_ELEMENT_THEORY = SGP/SGP4

EPOCH          = 2025-11-23T11:58:24.667968
MEAN_MOTION    = 14.82145959
ECCENTRICITY   = .0001565
INCLINATION    = 97.8859
RA_OF_ASC_NODE = 152.2006
ARG_OF_PERICENTER = 90.3473
MEAN_ANOMALY   = 269.7919

EPHEMERIS_TYPE = 0
CLASSIFICATION_TYPE = U
NORAD_CAT_ID   = 43641
ELEMENT_SET_NO = 999
REV_AT_EPOCH   = 38563
BSTAR          = .73783E-4
MEAN_MOTION_DOT = .535E-5
MEAN_MOTION_DDOT = 0

CCSDS_OMM_VERS = 2.0
CREATION_DATE  = 
ORIGINATOR     = 

OBJECT_NAME    = H-2A R/B
OBJECT_ID      = 2018-084L
CENTER_NAME    = EARTH
REF_FRAME      = TEME
TIME_SYSTEM    = UTC
MEAN_ELEMENT_THEORY = SGP/SGP4

EPOCH          = 2025-11-23T10:05:41.995680
MEAN_MOTION    = 15.36430557
ECCENTRICITY   = .0028731
INCLINATION    = 98.8785
RA_OF_ASC_NODE = 157.5110
ARG_OF_PERICENTER = 32.3834
MEAN_ANOMALY   = 327.9161

EPHEMERIS_TYPE = 0
CLASSIFICATION_TYPE = U
NORAD_CAT_ID   = 43682
ELEMENT_SET_NO = 999
REV_AT_EPOCH   = 38943
BSTAR          = .5113E-3
MEAN_MOTION_DOT = .18337E-3
MEAN_MOTION_DDOT = 0

CCSDS_OMM_VERS = 2.0
CREATION_DATE  = 
ORIGINATOR     = 

OBJECT_NAME    = SAOCOM 1B
OBJECT_ID      = 2020-059A
CENTER_NAME    = EARTH
REF_FRAME      = TEME
TIME_SYSTEM    = UTC
MEAN_ELEMENT_THEORY = SGP/SGP4

EPOCH          = 2025-11-23T12:43:26.474592
MEAN_MOTION    = 14.82154763
ECCENTRICITY   = .0001346
INCLINATION    = 97.8847
RA_OF_ASC_NODE = 151.3330
ARG_OF_PERICENTER = 90.0591
MEAN_ANOMALY   = 270.0776

EPHEMERIS_TYPE = 0
CLASSIFICATION_TYPE = U
NORAD_CAT_ID   = 46265
ELEMENT_SET_NO = 999
REV_AT_EPOCH   = 28302
BSTAR          = .71302E-4
MEAN_MOTION_DOT = .515E-5
MEAN_MOTION_DDOT = 0

CCSDS_OMM_VERS = 2.0
CREATION_DATE  = 
ORIGINATOR     = 

OBJECT_NAME    = CSS (TIANHE)
OBJECT_ID      = 2021-035A
CENTER_NAME    = EARTH
REF_FRAME      = TEME
TIME_SYSTEM    = UTC
MEAN_ELEMENT_THEORY = SGP/SGP4

EPOCH          = 2025-11-23T11:48:11.398176
MEAN_MOTION    = 15.59482397
ECCENTRICITY   = .0007945
INCLINATION    = 41.4658
RA_OF_ASC_NODE = 133.4631
ARG_OF_PERICENTER = 223.8516
MEAN_ANOMALY   = 136.1692

EPHEMERIS_TYPE = 0
CLASSIFICATION_TYPE = U
NORAD_CAT_ID   = 48274
ELEMENT_SET_NO = 999
REV_AT_EPOCH   = 26102
BSTAR          = .25428E-3
MEAN_MOTION_DOT = .2048E-3
MEAN_MOTION_DDOT = 0

CCSDS_OMM_VERS = 2.0
CREATION_DATE  = 
ORIGINATOR     = 

OBJECT_NAME    = COSMOS 2550
OBJECT_ID      = 2021-056A
CENTER_NAME    = EARTH
REF_FRAME      = TEME
TIME_SYSTEM    = UTC
MEAN_ELEMENT_THEORY = SGP/SGP4

EPOCH          = 2025-11-22T21:40:11.995968
MEAN_MOTION    = 15.33759073
ECCENTRICITY   = .0008276
INCLINATION    = 67.1436
RA_OF_ASC_NODE = 3.9363
ARG_OF_PERICENTER = 268.0359
MEAN_ANOMALY   = 91.9848

EPHEMERIS_TYPE = 0
CLASSIFICATION_TYPE = U
NORAD_CAT_ID   = 48865
ELEMENT_SET_NO = 999
REV_AT_EPOCH   = 24708
BSTAR          = .61512E-5
MEAN_MOTION_DOT = .1E-6
MEAN_MOTION_DDOT = 0

